[{"OBJECT_NAME":"SAUDISAT 5B","OBJECT_ID":"2018-102C","EPOCH":"2026-03-09T22:59:17.457216","MEAN_MOTION":15.27248504,"ECCENTRICITY":0.00120577,"INCLINATION":97.3281,"RA_OF_ASC_NODE":135.3629,"ARG_OF_PERICENTER":124.0958,"MEAN_ANOMALY":236.1427,"EPHEMERIS_TYPE":0,"CLASSIFICATION_TYPE":"U","NORAD_CAT_ID":43833,"ELEMENT_SET_NO":999,"REV_AT_EPOCH":40064,"BSTAR":0.00024926623,"MEAN_MOTION_DOT":6.596e-5,"MEAN_MOTION_DDOT":0},{"OBJECT_NAME":"STARLINK-36044","OBJECT_ID":"2025-278J","EPOCH":"2026-03-09T10:30:08.487936","MEAN_MOTION":15.27573924,"ECCENTRICITY":0.00023188,"INCLINATION":43.0057,"RA_OF_ASC_NODE":115.5178,"ARG_OF_PERICENTER":266.2452,"MEAN_ANOMALY":93.8135,"EPHEMERIS_TYPE":0,"CLASSIFICATION_TYPE":"U","NORAD_CAT_ID":66799,"ELEMENT_SET_NO":999,"REV_AT_EPOCH":1517,"BSTAR":0.00068344727,"MEAN_MOTION_DOT":0.00018589,"MEAN_MOTION_DDOT":0}]
